COSMOS 2490             
1 39485U 13076C   24224.89718369  .00000066  00000+0  40405-3 0  9998
2 39485  82.4787 228.4191 0022107 137.4231 222.8567 12.42896265482110
AIST-1 (RS-41)          
1 39492U 13078C   24225.17975893  .00006271  00000+0  61578-3 0  9995
2 39492  82.4172 202.0912 0018621  19.0313 341.1598 14.91911004576913
KAZEOSAT 1              
1 39731U 14024A   24225.20949505  .00000992  00000+0  31542-3 0  9990
2 39731  98.3923 300.7353 0001182  87.8250 272.3075 14.42020172541472
COSMOS 2496             
1 39761U 14028A   24224.93744921  .00000081  00000+0  51310-3 0  9995
2 39761  82.4481 171.0549 0020838 106.1943 254.1432 12.42871401463753
COSMOS 2497             
1 39762U 14028B   24225.15214835  .00000062  00000+0  37366-3 0  9991
2 39762  82.4528 172.3403 0021548 100.2399 260.1112 12.42885627463856
COSMOS 2498             
1 39763U 14028C   24224.93582855  .00000088  00000+0  56038-3 0  9992
2 39763  82.4490 171.2493 0022159 100.9162 259.4412 12.42943450463781
COSMOS 2499 (RS-47)     
1 39765U 14028E   24225.14643091  .00000042  00000+0  10946-3 0  9996
2 39765  82.4536 347.2472 0232422 143.9565 217.7465 12.82877223478819
HODOYOSHI-4             
1 40011U 14033B   24225.18438926  .00005398  00000+0  64189-3 0  9998
2 40011  97.5780  72.1128 0025574  18.9084 341.3075 14.84555991548672
UNISAT-6                
1 40012U 14033C   24224.91173572  .00013476  00000+0  17216-2 0  9996
2 40012  97.7095  25.1011 0053075 122.9333 237.7000 14.80523937546083
DEIMOS-2                
1 40013U 14033D   24225.16666084  .00007256  00000+0  77287-3 0  9994
2 40013  97.6728 110.1462 0002511  77.7871 282.3628 14.89191105550099
BUGSAT-1 (TITA)         
1 40014U 14033E   24224.94234479  .00016884  00000+0  11809-2 0  9993
2 40014  98.1216 269.3799 0033767 307.6129  52.2031 15.04900044554023
SAUDISAT 4              
1 40016U 14033G   24225.21109306  .00003514  00000+0  49188-3 0  9994
2 40016  97.6726  28.2647 0047996 106.1992 254.4508 14.77365182546492
APRIZESAT 9             
1 40018U 14033J   24224.99614049  .00004258  00000+0  66004-3 0  9997
2 40018  97.8108   8.4085 0068115 206.7884 152.9800 14.72113847544410
BRITE-CA1 (TORONTO)     
1 40020U 14033L   24225.12589878  .00005082  00000+0  81946-3 0  9995
2 40020  97.8845   0.3095 0081465 273.5802  85.6090 14.69670630543199
DUCHIFAT-1              
1 40021U 14033M   24224.69418517  .00036562  00000+0  22923-2 0  9994
2 40021  98.0939 211.4574 0009664 269.3638  90.6482 15.09194616552499
NANOSATC-BR1            
1 40024U 14033Q   24224.89384701  .00030145  00000+0  21308-2 0  9993
2 40024  98.0660 199.3749 0005393   4.6654 355.4620 15.04822380552143
QB50P1                  
1 40025U 14033R   24225.17601874  .00019971  00000+0  15680-2 0  9999
2 40025  98.0461 187.8117 0013842 353.3267   6.7769 15.00875921551780
DTUSAT-2                
1 40030U 14033W   24224.82650167  .00021660  00000+0  17664-2 0  9997
2 40030  98.0115 178.7814 0008016 352.3727   7.7372 14.99450753551030
FLOCK 1C-4              
1 40031U 14033X   24224.68109791  .00030681  00000+0  19272-2 0  9994
2 40031  98.0776 204.0531 0003515 298.7251  61.3623 15.09201582551588
QB50P2                  
1 40032U 14033Y   24225.12705144  .00020362  00000+0  16589-2 0  9992
2 40032  98.0070 179.1005 0008823 329.6672  30.4039 14.99497697551571
PERSEUS-M1              
1 40039U 14033AF  24224.84139069  .00007535  00000+0  77291-3 0  9999
2 40039  97.9049 151.7357 0013316  18.7413 341.4293 14.90653038549972
POLYITAN-1              
1 40042U 14033AJ  24224.86824452  .00032087  00000+0  23098-2 0  9997
2 40042  98.0718 191.5015 0010848 310.8260  49.2023 15.04087296551719
TIGRISAT                
1 40043U 14033AK  24224.94909460  .00010474  00000+0  13724-2 0  9991
2 40043  97.7017  25.2999 0055940 121.3692 239.3011 14.79418631545701
AISAT                   
1 40054U 14034B   24225.13687491  .00019478  00000+0  20136-2 0  9991
2 40054  98.3315  83.4831 0008533 303.1940  56.8458 14.90128870546146
CANX-4                  
1 40055U 14034C   24225.17174243  .00004553  00000+0  63249-3 0  9993
2 40055  98.3921  62.2529 0013688  17.6471 342.5211 14.78345669544853
CANX-5                  
1 40056U 14034D   24225.10887026  .00005540  00000+0  76766-3 0  9992
2 40056  98.3923  62.1936 0013714  18.0150 342.1543 14.78357001544842
VELOX-I                 
1 40057U 14034E   24225.18584192  .00012945  00000+0  14563-2 0  9992
2 40057  98.3362  83.0652 0008112 328.8351  31.2382 14.86799954546023
GONETS-M 10             
1 40063U 14036C   24224.93224739  .00000059  00000+0  35350-3 0  9992
2 40063  82.5139   6.4345 0022187 171.1230 189.0247 12.42916212458480
METEOR-M 2              
1 40069U 14037A   24225.22023691  .00000609  00000+0  30013-3 0  9998
2 40069  98.4400 216.9631 0005529 183.2372 176.8771 14.21017470523588
DX1                     
1 40071U 14037C   24225.21365730  .00006010  00000+0  70658-3 0  9994
2 40071  98.3285 140.2480 0006541 309.2629  50.8004 14.85255108545959
UKUBE-1                 
1 40074U 14037F   24224.77833231  .00022750  00000+0  20811-2 0  9997
2 40074  98.3418 158.1606 0002091 221.1002 139.0060 14.94990903547088
GAOFEN-2                
1 40118U 14049A   24225.16914484  .00004334  00000+0  57391-3 0  9995
2 40118  98.1075 275.5894 0006969 233.5803 126.4766 14.80421335539516
BRITE-PL2 (HEWELIUSZ)   
1 40119U 14049B   24225.19246694  .00007029  00000+0  74523-3 0  9990
2 40119  97.8842 324.6273 0015779 175.9829 184.1517 14.89313593541005
HODOYOSHI-1             
1 40299U 14070B   24225.15611631  .00051618  00000+0  85551-3 0  9992
2 40299  97.1350 284.7215 0007800 183.3602 176.7600 15.51962104543797
CBERS 4                 
1 40336U 14079A   24225.15975367  .00000613  00000+0  22808-3 0  9997
2 40336  98.3968 292.0226 0001444 123.2028 236.9297 14.35491800507279
SMAP                    
1 40376U 15003A   24224.95917510  .00002899  00000+0  57035-3 0  9990
2 40376  98.1290 230.5631 0001430  75.2576 284.8785 14.63336468509012
GONETS-M 11             
1 40552U 15020A   24224.92181265  .00000051  00000+0  29658-3 0  9990
2 40552  82.4827  91.1036 0017092  35.4761 324.7452 12.42873159424979
GONETS-M 12             
1 40553U 15020B   24224.89543060  .00000014  00000+0  32912-4 0  9999
2 40553  82.4862  92.0534 0015596  21.2197 338.9526 12.42884113424965
GONETS-M 13             
1 40554U 15020C   24224.86816035  .00000044  00000+0  24730-3 0  9993
2 40554  82.4822  90.9008 0013890   7.0773 353.0500 12.42874187424939
DMC3-FM1                
1 40715U 15032A   24225.20505587  .00003084  00000+0  37775-3 0  9991
2 40715  97.7416 102.4616 0007256 105.5103 254.6913 14.83853500489882
DMC3-FM2                
1 40716U 15032B   24225.16022510  .00002947  00000+0  36116-3 0  9992
2 40716  97.7469 103.5252 0009112 110.3477 249.8717 14.83861488489871
DMC3-FM3                
1 40717U 15032C   24225.18822826  .00002678  00000+0  32944-3 0  9999
2 40717  97.7517 104.8545 0010591 108.4475 251.7892 14.83768345489889
CARBONITE 1 (CBNT-1)    
1 40718U 15032D   24225.16267300  .00007005  00000+0  95451-3 0  9999
2 40718  97.6568  62.5993 0015092 347.1359  12.9466 14.78908673489536
DEORBITSAIL             
1 40719U 15032E   24225.09016641  .00021337  00000+0  23319-2 0  9999
2 40719  97.6808  86.7013 0011753 317.4998  42.5308 14.87822415490405
2015-049A               
1 40899U 15049A   24225.12601319  .00052023  00000+0  11243-2 0  9991
2 40899  97.4640 242.4394 0010698 111.9954 248.2432 15.44281840493260
KAITUO 1A               
1 40904U 15049F   24225.17578904  .00112343  00000+0  16727-2 0  9990
2 40904  97.4817 244.1211 0009341 118.2677 241.9521 15.54685366493121
2015-049G               
1 40905U 15049G   24225.13004460  .00024119  00000+0  82300-3 0  9992
2 40905  97.5226 234.8685 0013072 138.1256 222.0987 15.30251515492267
XW-2C                   
1 40906U 15049H   24225.16283154  .00063650  00000+0  12569-2 0  9997
2 40906  97.4763 243.5845 0010114 105.0251 255.2119 15.46884000493118
XW-2D                   
1 40907U 15049J   24225.19029575  .00107831  00000+0  14648-2 0  9996
2 40907  97.4693 246.8349 0008505 101.0651 259.1561 15.57205880493396
LILACSAT-2              
1 40908U 15049K   24225.22289853  .00019507  00000+0  72030-3 0  9990
2 40908  97.5249 234.3851 0013514 145.8954 214.3156 15.27706687492045
XW-2B                   
1 40911U 15049N   24225.18456706  .00103285  00000+0  14614-2 0  9992
2 40911  97.4672 246.8272 0008582 103.5118 256.7093 15.56118640493257
COSMOS 2507             
1 40920U 15050A   24224.84139428  .00000056  00000+0  33010-3 0  9999
2 40920  82.4942 139.4956 0010512  24.4965 335.6612 12.42892509403085
COSMOS 2508             
1 40921U 15050B   24224.86922640  .00000042  00000+0  22817-3 0  9996
2 40921  82.4895 138.2373 0015170  54.9195 305.3305 12.42876035403079
COSMOS 2509             
1 40922U 15050C   24224.89551225  .00000054  00000+0  32029-3 0  9996
2 40922  82.4896 138.3042 0017483  67.5062 292.7867 12.42883695403114
LAPAN-A2                
1 40931U 15052B   24223.74146045  .00002108  00000+0  19743-3 0  9991
2 40931   6.0013 322.8859 0012293 137.3818 222.7265 14.77986161479549
LQSAT                   
1 40958U 15057A   24225.17405863  .00002807  00000+0  42398-3 0  9998
2 40958  97.6669 242.3854 0016101 301.9598  58.0046 14.74947088475868
LINGQIAO VIDEO A        
1 40959U 15057B   24225.16332294  .00002969  00000+0  44468-3 0  9994
2 40959  97.6657 243.5683 0015966 301.2590  58.7056 14.75276573475944
LINGQIAO VIDEO B        
1 40960U 15057C   24225.18492376  .00002891  00000+0  43154-3 0  9991
2 40960  97.6666 244.7658 0016066 301.4397  58.5242 14.75446376475989
JILIN-1                 
1 40961U 15057D   24225.17357830  .00003574  00000+0  52357-3 0  9990
2 40961  97.6694 247.6852 0015946 297.6024  62.3567 14.76115323476090
